STARLINK-30227
1 57505U 23113L   26060.98606520  .00014521  00000+0  72928-3 0  9995
2 57505  43.0030  45.1420 0000861 263.3433  96.7317 15.17115043142669
STARLINK-30231
1 57514U 23113V   26061.16668981  .01234727  00000+0  55900-1 0  9997
2 57514  42.9996  57.8995 0001620 256.0525  48.9091 15.17109042  5725
STARLINK-30377
1 57825U 23138T   26061.16668981  .01024306  00000+0  47091-1 0  9991
2 57825  42.9995 276.1016 0001550 288.3328  96.7633 15.17116095  5763
STARLINK-30411
1 57828U 23138W   26061.16668981  .01038237  00000+0  47708-1 0  9997
2 57828  42.9993 276.2158 0001694 290.2587  38.7350 15.17097590  5760
STARLINK-30875
1 58224U 23170U   26061.16668981  .02214412  00000+0  99350-1 0  9996
2 58224  42.9987 236.2460 0001527 301.5059  73.5788 15.17101718  5761
